1 41565U 98067JP  18096.03238924  .09445108  12367-4  82242-3 0  9991
2 41565  51.6020 296.9742 0010034 275.5763  84.4484 16.38288374106019
1 41566U 98067JQ  17206.27883464 +.05984292 +12224-4 +68643-3 0  9994
2 41566 051.6005 150.4905 0008863 238.1798 121.8364 16.35919912066078
1 41567U 98067JR  18178.40169972  .11398691  12446-4  92239-3 0  9993
2 41567  51.6189 248.8124 0007910 305.1771  54.8513 16.38988334118767
1 41568U 98067JS  18095.08131188  .12437793  12391-4  90652-3 0  9998
2 41568  51.6155 311.8132 0009424 269.3233  90.5330 16.39790798105730
1 41569U 98067JT  18095.60046340 +.08263427 +12312-4 +94260-3 0  9990
2 41569 051.6120 297.1335 0009822 279.7919 080.1997 16.35932588105850
1 41570U 98067JU  17276.23066052  .07821693  11956-4  21580-2 0  9994
2 41570  51.6314 172.6072 0011089 233.3572 126.6600 16.26996484 76726
1 41571U 98067JV  17358.79358663  .07570510  12393-4  99252-3 0  9996
2 41571  51.6107 107.3098 0009920 356.3054   4.2290 16.34648771 89702
1 41572U 98067JW  18059.08879125  .09590036  12472-4  58925-3 0  9996
2 41572  51.6219 132.2961 0002556 327.8609  33.2166 16.41347157 99987
1 41573U 98067JX  18062.65860353  .09928625  12431-4  80990-3 0  9998
2 41573  51.5922 110.2436 0003600   1.2289 358.7449 16.39031415100592
1 41574U 98067JY  18062.82927663  .08399169  12325-4  83007-3 0  9994
2 41574  51.5802 108.9826 0002045  91.6097 269.0366 16.37402810100624
1 41575U 98067JZ  18070.94679928  .20696072  12478-4  12063-2 0  9994
2 41575  51.6104  58.7875 0003218 307.0775  52.9851 16.41747452102008
1 41576U 98067KA  18047.65400982  .07293230  12279-4  11048-2 0  9994
2 41576  51.6201 187.1174 0004788 324.9504  35.0382 16.33417827 98126
1 41577U 98067KB  18070.48609598  .17416888  12466-4  85478-3 0  9990
2 41577  51.6089  71.8929 0001695 227.7940 132.4139 16.43071472101519
1 41578U 98067KC  18059.51962195  .07518372  12317-4  10697-2 0  9992
2 41578  51.6066 119.7414 0005837  20.9767 339.3048 16.34000311 99896
1 41606U 16040H   23008.06500462  .17994078  22934-5  61572-3 0  9998
2 41606  97.1403  75.8721 0010334 319.2758  40.7770 16.43679794365273
1 41608U 16040K   22292.83073079  .06133519  23208-5  22017-2 0  9996
2 41608  97.1654   0.0774 0012098 271.5512  88.4394 16.24751742353134
1 41609U 16040L   23016.46817117  .11225729  23465-5  17271-2 0  9992
2 41609  97.1441  85.5714 0012865 288.6772  71.3128 16.33895182366575
1 41610U 16040M   23078.84713514  .12302716  23931-5  16861-2 0  9995
2 41610  97.1605 141.9789 0010293 253.7217 106.2948 16.35125903375698
1 41611U 16040N   22352.69328558  .04465911  22882-5  92437-3 0  9999
2 41611  97.1181  61.4643 0003066 298.3811  61.7175 16.31162007362457
1 41612U 16040P   23065.57876006  .13255008  23763-5  15873-2 0  9996
2 41612  97.1511 131.8457 0011898 266.8735  93.1202 16.36324854373926
1 41613U 16040Q   23087.33604282  .13923948  23929-5  15533-2 0  9992
2 41613  97.1730 151.4487 0013602 265.7495  94.2249 16.36887364377159
1 41614U 16040R   23015.93028654  .14468758  23873-5  17108-2 0  9995
2 41614  97.1133  83.6880 0009848 249.2428 110.7816 16.36531136366357
1 41615U 16040S   22328.35549806  .04469340  22865-5  20899-2 0  9993
2 41615  97.1412  35.3181 0007691 271.7200  88.3209 16.21622548358571
1 41616U 16040T   22347.17029687  .03707562  22785-5  19684-2 0  9996
2 41616  97.1366  52.5830 0007047 264.3141  95.7345 16.19997156361315
1 41617U 16040U   22319.14534536  .10269263  23561-5  13951-2 0  9990
2 41617  97.1628  26.1237 0009426 281.9902  78.0338 16.35242833357121
1 41618U 16040V   23086.95065410  .11034912  23796-5  15286-2 0  9997
2 41618  97.1657 151.8237 0012984 261.5412  98.4414 16.34903958377116
1 41761U 98067KH  18154.58100078  .08792996  12263-4  92953-3 0  9996
2 41761  51.6029  31.3620 0010502 256.3270 103.6931 16.36585548 98182
1 41762U 98067KJ  18297.65813860 +.04633274 +12113-4 +12191-2 0  9991
2 41762 051.6102 021.6904 0009509 002.2053 357.9008 16.27579428120651
1 41763U 98067KK  18152.14364457  .17380796  12355-4  12196-2 0  9994
2 41763  51.6065  41.4007 0012067 257.6830 102.5693 16.39967936 97796
1 41764U 98067KL  18314.35693980  .11338657  12278-4  11010-2 0  9995
2 41764  51.6147 297.3930 0004800 130.8519 229.2277 16.37516866123220
1 41769U 98067KM  18311.16413517  .17547955  12625-4  58790-3 0  9994
2 41769  51.5984 314.3630 0006556 347.8382  12.0272 16.44264389122712
1 41776U 98067KN  18177.35537988  .11238463  12459-4  78797-3 0  9991
2 41776  51.6078 275.1051 0007720 296.0310  63.9922 16.40171370101713
1 41777U 98067KP  18132.88719735  .13878815  12456-4  67790-3 0  9994
2 41777  51.6070 137.0157 0002336 223.1762 136.9083 16.43100745 94754
1 41782U 98067KQ  18265.14821570 +.12437954 +12466-4 +39039-3 0  9997
2 41782 051.6068 177.2170 0008494 248.1587 111.8538 16.44321266115464
1 41950U 17008C   23063.10172087  .15003667  24269-5  12660-2 0  9998
2 41950  97.2232 138.1064 0011457 274.4853  85.5137 16.39452679337431
1 41951U 17008D   23081.10723428  .15446534  24193-5  12444-2 0  9990
2 41951  97.1990 153.3956 0011789 270.7594  89.2355 16.39697655340016
1 41952U 17008E   23050.99800088  .16844598  24452-5  36673-3 0  9994
2 41952  97.2054 126.1180 0012785 281.3269  78.6597 16.45725098335553
1 41953U 17008F   22347.61432072  .01764756  23706-2  21629-2 0  9999
2 41953  97.2418  66.2129 0006155 297.3760  62.6896 16.08576328325487
1 41955U 17008H   22347.65034326  .05776609  23386-5  19312-2 0  9992
2 41955  97.2253  62.0357 0007920 298.0112  62.0378 16.25723391325238
1 41956U 17008J   23206.11195211  .11838591  24094-5  14037-2 0  9992
2 41956  97.2035 281.0910 0016660 273.0063  86.9328 16.36148998359529
1 41957U 17008K   22331.81507920  .15454591  24402-5  41554-3 0  9998
2 41957  97.2039  49.5649 0011622 276.7204  83.2775 16.44732495322964
1 41958U 17008L   22340.74143654  .03052624  21448-1  28968-2 0  9995
2 41958  97.2513  58.9676 0009038 302.5225  57.5188 16.15877353324252
1 41959U 17008M   23007.55971685  .02579228  13269-1  24372-2 0  9999
2 41959  97.2369  87.5017 0007019 291.9002  68.1538 16.15386535328999
1 41960U 17008N   23032.07421449  .12621667  24412-5  86803-3 0  9994
2 41960  97.2284 110.8491 0006488 270.2372  89.8185 16.41113568332796
1 41961U 17008P   22341.19945794  .06676847  23460-5  17325-2 0  9991
2 41961  97.2141  56.8987 0008131 294.5035  65.5411 16.28615467324244
1 41962U 17008Q   22316.92957665  .08435006  23769-5  17873-2 0  9997
2 41962  97.2316  33.3946 0010112 286.7007  73.3178 16.30749369320489
1 41963U 17008R   22361.45765482  .12947751  24043-5  12285-2 0  9998
2 41963  97.2195  76.8155 0010284 282.6797  77.3352 16.38492647327320
1 41964U 17008S   23009.93860316  .08396415  23408-5  23054-2 0  9994
2 41964  97.2229  90.2432 0007629 294.4575  65.5922 16.27996331329412
1 41965U 17008T   23015.14288041  .11389157  25098-5  16172-2 0  9993
2 41965  97.2579  89.1410 0004538 238.7011 131.2955 16.34947824329874
1 41966U 17008U   23021.64543160  .42658261  25422-5  10838-2 0  9995
2 41966  97.2179  94.6482 0008572 259.6471 234.6999 16.45399332330713
1 41967U 17008V   22308.89936178  .08323624  23427-5  27929-2 0  9991
2 41967  97.2283  26.7304 0009123 291.4059  68.6260 16.25647829319367
1 41968U 17008W   23076.94329130  .34309221  24679-5  70325-3 0  9990
2 41968  97.1924 148.4165 0012691 262.6704 206.3131 16.46073616339154
1 41969U 17008X   22341.14583960  .05615485  23261-5  22792-2 0  9990
2 41969  97.2265  55.1709 0006914 297.1750  62.8836 16.23410034324095
1 41970U 17008Y   22301.50530516  .10818263  24195-5  13660-2 0  9993
2 41970  97.2282  20.6281 0010839 267.7296  92.2761 16.35877851318305
1 41971U 17008Z   22340.87559052  .08903445  23695-5  14536-2 0  9994
2 41971  97.2368  57.1024 0008408 299.4183  60.6273 16.33483262324106
1 41972U 17008AA  23013.35407500  .28302370  25897-5  74572-3 0  9991
2 41972  97.2228  86.4904 0011911 157.7872 202.7144 16.44802089329529
1 41973U 17008AB  23025.07633915  .13999023  24084-5  90493-3 0  9993
2 41973  97.2206 103.4131 0009409 283.2157  76.8093 16.40946406331689
1 41974U 17008AC  23006.45612527  .14994801  24604-5  69360-3 0  9998
2 41974  97.1985  86.5948 0016999 342.4641  17.6071 16.41297435328809
1 41975U 17008AD  23007.97400921  .15190833  24112-5  64828-3 0  9992
2 41975  97.2166  80.8345 0008943 282.8239  77.2063 16.42818723328577
1 41976U 17008AE  23066.06140468  .21223493  23898-5  13079-2 0  9992
2 41976  97.2096 141.8676 0010772 286.6221  73.4504 16.40946919337082
1 41977U 17008AF  23003.48275040  .15948809  24166-5  79860-3 0  9993
2 41977  97.1911  77.7923 0014377 297.4510  72.2978 16.41323660328159
1 41978U 17008AG  23012.83338757  .34021852  27674-5  48057-3 0  9990
2 41978  97.2006  86.8604 0021545 345.6480 107.2186 16.47223603329423
1 41979U 17008AH  23007.46901250  .14024236  24357-5  67628-3 0  9995
2 41979  97.2367  87.3924 0010973 282.0972  77.9099 16.41985719329061
1 41980U 17008AJ  23078.04276672  .15264798  24261-5  87809-3 0  9999
2 41980  97.2111 153.4793 0011015 275.2694  84.7350 16.41204646339534
1 41981U 17008AK  22331.48492736  .12980554  24078-5  12676-2 0  9997
2 41981  97.2487  50.4637 0010556 292.3560  67.6620 16.38226878322961
1 41982U 17008AL  23006.45605911  .12126825  23873-5  14197-2 0  9991
2 41982  97.2310  88.1962 0008767 287.9628  72.0714 16.36661208327981
1 41983U 17008AM  22357.96740151  .07500983  23452-5  23673-2 0  9999
2 41983  97.2235  74.3854 0008091 287.3066  72.7341 16.26392501326815
1 41984U 17008AN  23036.99600642  .19370935  22847-5  34430-3 0  9994
2 41984  97.2052 114.3635 0009709 349.0115  11.0975 16.47225819333337
1 41985U 17008AP  23046.18648262  .04700157  23154-5  27915-2 0  9995
2 41985  97.2366 122.9448 0006046 287.2084  72.8542 16.18524862334695
1 41986U 17008AQ  23022.62435848  .08507445  23558-5  17646-2 0  9990
2 41986  97.2190 100.9030 0009632 300.6316  59.4028 16.30991185330681
1 41987U 17008AR  23046.47666882  .02540519  10485-1  25008-2 0  9999
2 41987  97.2370 124.6642 0005715 295.9460  64.1237 16.14062087334825
